GORIZONT 1 [-]          
1 11158U 78118A   23047.80510343 -.00000225  00000+0  00000+0 0  9999
2 11158  11.0988 195.6515 3413920 294.7804  33.4482  1.00297040110743
GORIZONT 2 [-]          
1 11440U 79062A   23048.87610243 -.00000104  00000+0  00000+0 0  9996
2 11440   8.7095 298.9983 0002615 329.1728 270.5002  1.00307118125831
GORIZONT 3 [-]          
1 11648U 79105A   23048.83274150 -.00000313  00000+0  00000+0 0  9995
2 11648   8.8730 300.4756 0011973 219.1603  28.1843  1.00321212110297
GORIZONT 4 [-]          
1 11841U 80049A   23049.05496354 -.00000179  00000+0  00000+0 0  9996
2 11841  10.0356 306.4331 0001310  25.4136 150.7875  0.98630365221567
GORIZONT 5 [-]          
1 13092U 82020A   23048.12235432 -.00000161  00000+0  00000+0 0  9993
2 13092  11.0507 311.8007 0033292 217.8483 335.2864  0.98532700109615
GORIZONT 6 [-]          
1 13624U 82103A   23048.23734091  .00000114  00000+0  00000+0 0  9990
2 13624   9.9805 311.8738 0000536  54.7557  81.3066  1.00353122108759
GORIZONT 7 [-]          
1 14160U 83066A   23048.59182434 -.00000223  00000+0  00000+0 0  9994
2 14160  11.6781 321.3916 0010032 324.7720 225.0335  0.98350043142799
GORIZONT 8 [-]          
1 14532U 83118A   23048.05767799 -.00000194  00000+0  00000+0 0  9996
2 14532  11.8628 323.2782 0029723 153.4601  40.1818  0.98271598108553
GORIZONT 9 [-]          
1 14940U 84041A   23048.86020010  .00000064  00000+0  00000+0 0  9997
2 14940  11.0495 321.2622 0004060 218.1000 335.4922  1.00241563109752
GORIZONT 10 [-]         
1 15144U 84078A   23048.45619579  .00000099  00000+0  00000+0 0  9991
2 15144  11.1515 322.2904 0000518  84.9690  93.6955  1.00279435142389
GORIZONT 11 [-]         
1 15484U 85007A   23048.66077177 -.00000295  00000+0  00000+0 0  9995
2 15484  11.3410 324.2909 0002679 147.1461  50.6482  1.00312165140448
GORIZONT 12 [-]         
1 16769U 86044A   23048.85671351  .00000131  00000+0  00000+0 0  9997
2 16769  11.9926 329.7130 0000825 272.0369 253.8356  1.00265238135073
GORIZONT 13 [-]         
1 17083U 86090A   23049.07632941 -.00000071  00000+0  00000+0 0  9999
2 17083  13.9048 336.9698 0014113 345.4182  95.6248  0.96725631106917
GORIZONT 14 [-]         
1 17969U 87040A   23048.40747927 -.00000113  00000+0  00000+0 0  9992
2 17969  12.7970 328.2952 0030415 177.9690 351.2849  0.97659248107980
GORIZONT 15 [-]         
1 19017U 88028A   23048.87929856 -.00000036  00000+0  00000+0 0  9993
2 19017  14.2155 339.7486 0036711 160.3598  42.6561  0.97826051107615
GORIZONT 16 [-]         
1 19397U 88071A   23048.88951900 -.00000234  00000+0  00000+0 0  9998
2 19397  13.0625 338.4237 0014510  64.0888 161.7007  0.99966892126080
GORIZONT 17 [-]         
1 19765U 89004A   23048.78472905 -.00000183  00000+0  00000+0 0  9999
2 19765  13.6307 341.8038 0022515 135.3407  65.0703  0.99065698123532
GORIZONT 18 [-]         
1 20107U 89052A   23048.05759083 -.00000217  00000+0  00000+0 0  9997
2 20107  13.6848 343.0611 0033991 322.9667 210.2598  0.99404886122325
GORIZONT 19 [-]         
1 20263U 89081A   23048.83570994 -.00000330  00000+0  00000+0 0  9996
2 20263  13.4095 342.2199 0003248 213.4298 353.3691  1.00332820 35156
GORIZONT 20 [-]         
1 20659U 90054A   23048.87929834 -.00000132  00000+0  00000+0 0  9992
2 20659  13.8648 345.0315 0006431 170.4224  27.3375  1.00223296119507
GORIZONT 21 [-]         
1 20923U 90094A   23048.19583432 -.00000261  00000+0  00000+0 0  9998
2 20923  13.8847 345.8019 0003816 210.1985 344.2521  1.00325856118251
GORIZONT 22 [-]         
1 20953U 90102A   23048.74328986 -.00000371  00000+0  00000+0 0  9995
2 20953  13.8448 346.1718 0002801  28.2948 164.8867  1.00208333118182
GORIZONT 23 [-]         
1 21533U 91046A   23049.03521815 -.00000116  00000+0  00000+0 0  9994
2 21533  14.6363 350.3493 0004179 322.2967  41.0347  0.98910257108715
GORIZONT 24 [-]         
1 21759U 91074A   23048.12880453 -.00000217  00000+0  00000+0 0  9992
2 21759  14.8058 352.2817 0017641 229.9426 317.7633  0.98445310112988
GORIZONT 25 [-]         
1 21922U 92017A   23048.85761685 -.00000315  00000+0  00000+0 0  9996
2 21922  14.3439 351.5725 0028851  85.6929 129.6489  0.99848437112806
GORIZONT 26 [-]         
1 22041U 92043A   23049.19634497 -.00000235  00000+0  00000+0 0  9997
2 22041  14.5296 353.6009 0030542 240.5694 289.1591  0.99243771111435
GORIZONT 27 [-]         
1 22245U 92082A   23048.56384442  .00000028  00000+0  00000+0 0  9997
2 22245  14.4453 353.1597 0012435  13.5303 353.5536  1.00199617114944
GORIZONT 28 [-]         
1 22880U 93069A   23048.28014707  .00000018  00000+0  00000+0 0  9990
2 22880  14.6144 357.0510 0033675 136.2782 310.2192  0.99655822107019
GORIZONT 29 [-]         
1 22907U 93072A   23048.33146286 -.00000251  00000+0  00000+0 0  9998
2 22907  14.5215 356.4911 0010384 350.6551 203.0979  1.00123692106999
GORIZONT 30 [-]         
1 23108U 94030A   23048.73868869 -.00000340  00000+0  00000+0 0  9998
2 23108  14.5407 357.3830 0000867 179.5831  10.4352  1.00225428105275
GORIZONT 31 [-]         
1 23775U 96005A   23048.06116458 -.00000048  00000+0  00000+0 0  9993
2 23775  14.5028   3.6497 0018416 205.7512 325.9279  0.99898309 98905
GORIZONT 32 [-]         
1 23880U 96034A   23049.16897521 -.00000080  00000+0  00000+0 0  9997
2 23880  14.4563   4.1398 0008240 359.4091  12.9787  1.00221356 97871
GORIZONT 33 [-]         
1 26372U 00029A   23049.20427698 -.00000143  00000+0  00000+0 0  9994
2 26372  13.2562  15.4417 0002339  83.2288 107.6619  1.00290164 83230
